[{"OBJECT_NAME":"STARLINK-32013","OBJECT_ID":"2024-117N","EPOCH":"2026-03-09T07:03:22.813056","MEAN_MOTION":15.30196531,"ECCENTRICITY":0.00013293,"INCLINATION":53.1623,"RA_OF_ASC_NODE":39.1216,"ARG_OF_PERICENTER":104.0281,"MEAN_ANOMALY":256.0868,"EPHEMERIS_TYPE":0,"CLASSIFICATION_TYPE":"U","NORAD_CAT_ID":60103,"ELEMENT_SET_NO":999,"REV_AT_EPOCH":9682,"BSTAR":-4.6540836e-5,"MEAN_MOTION_DOT":-1.737e-5,"MEAN_MOTION_DDOT":0},{"OBJECT_NAME":"YAOGAN-43 01F","OBJECT_ID":"2024-148F","EPOCH":"2026-03-10T00:23:08.877408","MEAN_MOTION":15.29824616,"ECCENTRICITY":0.00057048,"INCLINATION":34.9925,"RA_OF_ASC_NODE":59.8891,"ARG_OF_PERICENTER":18.4862,"MEAN_ANOMALY":341.6062,"EPHEMERIS_TYPE":0,"CLASSIFICATION_TYPE":"U","NORAD_CAT_ID":60463,"ELEMENT_SET_NO":999,"REV_AT_EPOCH":8707,"BSTAR":0.00058388219,"MEAN_MOTION_DOT":0.00017308,"MEAN_MOTION_DDOT":0}]
